IRIDIUM 39              
1 25042U 97069D   25163.64080703  .00000438  00000+0  10940-3 0  9990
2 25042  86.3933 213.0792 0016399 328.7563  31.2665 14.49215616448304
IRIDIUM 38              
1 25043U 97069E   25164.20286531  .00000574  00000+0  18286-3 0  9993
2 25043  86.3969 234.8299 0004207 101.8182 258.3488 14.38116728445640
IRIDIUM 42              
1 25077U 97077A   25163.92551511  .00000303  00000+0  96893-4 0  9991
2 25077  86.3971 241.1110 0002936 102.7699 257.3826 14.36349856440584
IRIDIUM 44              
1 25078U 97077B   25164.03041630  .00000337  00000+0  10022-3 0  9997
2 25078  86.3976 223.0046 0003816  70.3924 289.7687 14.40239628443134
IRIDIUM 45              
1 25104U 97082A   25164.11241162  .00017374  00000+0  62312-3 0  9992
2 25104  86.3584  49.8744 0116308 348.3975  11.4590 15.22297370451673
IRIDIUM 24              
1 25105U 97082B   25163.80074701  .00000417  00000+0  12068-3 0  9994
2 25105  86.3902  82.1619 0013633  91.5298 268.7464 14.42095710442583
IRIDIUM 51              
1 25262U 98018A   25163.74141177  .00025609  00000+0  57424-3 0  9998
2 25262  86.3841  58.0361 0083600 267.2119  91.9564 15.39556600446342
IRIDIUM 57              
1 25273U 98019B   25163.36355461  .00000277  00000+0  88840-4 0  9993
2 25273  86.3968 147.2825 0002375  89.0234 271.1235 14.35890658424092
